OBJECT_NAME,OBJECT_ID,EPOCH,MEAN_MOTION,ECCENTRICITY,INCLINATION,RA_OF_ASC_NODE,ARG_OF_PERICENTER,MEAN_ANOMALY,EPHEMERIS_TYPE,CLASSIFICATION_TYPE,NORAD_CAT_ID,ELEMENT_SET_NO,REV_AT_EPOCH,BSTAR,MEAN_MOTION_DOT,MEAN_MOTION_DDOT
NUVIEW BRAVO,2024-252D,2026-06-09T10:30:41.966208,1.00270853,.0001758,0.0715,143.0681,340.9414,208.3699,0,U,62457,999,371,0,-.198E-5,0
THURAYA-4,2025-001A,2026-06-10T10:04:39.720288,1.00272901,.0000104,0.0261,66.3943,186.9356,200.9319,0,U,62483,999,411,0,.157E-5,0
SHIJIAN-25 (SJ-25),2025-002A,2026-06-09T18:00:59.997888,1.00272159,.0052086,5.0946,61.2054,173.0142,61.4939,0,U,62485,999,528,0,-.334E-5,0
TJS-14,2025-017A,2026-06-10T07:23:38.747904,1.00271710,.0000819,0.7991,295.0970,283.9317,168.9131,0,U,62804,999,520,0,.133E-5,0
SPAINSAT NG I,2025-021A,2026-06-10T06:35:09.857760,1.00269726,.0000088,0.0177,341.3207,270.4510,134.6680,0,U,62852,999,391,0,.169E-5,0
QZS-6 (MICHIBIKI-6),2025-023A,2026-06-10T10:18:01.221120,1.00272893,.0001859,0.0360,59.4029,27.8201,56.5870,0,U,62876,999,488,0,-.216E-5,0
ZHONGXING-10R,2025-036A,2026-06-10T10:23:38.181120,1.00268344,.0003332,0.0394,249.5517,255.5272,20.1388,0,U,63075,999,489,0,-.334E-5,0
TJS-15,2025-045A,2026-06-09T17:07:37.136064,1.00274743,.0004854,0.2818,85.3656,298.4036,225.5785,0,U,63157,999,468,0,-.248E-5,0
TIANLIAN 2-04,2025-062A,2026-06-10T10:14:54.019968,1.00271024,.0031578,4.3931,274.5370,10.4452,207.5800,0,U,63361,999,453,0,-.117E-5,0
TJS-16,2025-064A,2026-06-09T15:48:44.238240,1.00271840,.0003519,1.0777,81.4975,291.2674,283.0571,0,U,63397,999,431,0,-.88E-6,0
TJS-17,2025-073A,2026-06-09T15:49:51.631104,1.00272079,.000227,1.0435,82.7569,298.7781,278.4847,0,U,63524,999,421,0,-.52E-6,0
TIANLIAN 2-05,2025-084A,2026-06-10T11:40:23.136096,1.00271081,.0003314,4.4694,279.9113,145.6423,28.7857,0,U,63662,999,431,0,.142E-5,0
TJS-19,2025-097A,2026-06-09T17:25:54.264864,1.00268609,.0002139,3.2998,317.3056,237.1536,106.3772,0,U,63924,999,406,0,-.262E-5,0
CHINASAT 3B,2025-106A,2026-06-10T11:09:14.704992,1.00268961,.0002916,0.0424,142.5427,338.9176,112.0004,0,U,64062,999,399,0,-.28E-6,0
SXM-10,2025-122A,2026-06-10T05:53:41.127360,1.00269821,.00017068,0.0197,23.7095,343.5755,223.5661,0,U,64290,999,361,0,.1E-7,0
COSMOS 2589,2025-131A,2026-06-09T18:07:19.382016,1.00271139,.0001216,0.0483,76.4674,75.0725,116.3977,0,U,64467,999,348,0,-.274E-5,0
CHINASAT 9C,2025-132A,2026-06-10T03:27:49.754304,1.00271502,.00027156,0.0218,264.9201,174.1193,323.6460,0,U,64470,999,407,0,-.23E-5,0
MTG-S1,2025-143A,2026-06-10T08:08:28.702176,1.00271596,.0000988,0.6094,337.3675,22.8175,17.1593,0,U,64723,999,335,0,-.15E-6,0
DROR 1,2025-148A,2026-06-10T08:08:21.213024,1.00271611,.0002732,0.0144,27.3153,2.5005,346.9671,0,U,64784,999,322,0,-.17E-6,0
SHIYAN-29,2025-196A,2026-06-09T01:48:31.441824,1.00256520,.00109724,28.8121,18.6391,171.7452,188.2752,0,U,65486,999,279,0,-.259E-5,0
NUSANTARA LIMA (NUSANTARA 5),2025-205A,2026-06-10T08:41:39.937056,1.00270725,.0000247,0.0287,144.0697,343.4128,14.5175,0,U,65588,999,265,0,-.34E-5,0
TJS-20,2025-238A,2026-06-09T23:53:55.220064,1.00273056,.00046536,5.4867,299.5783,158.6065,221.0517,0,U,66142,999,226,0,.39E-6,0
CMS-03 (GSAT-7R),2025-249B,2026-06-10T10:58:38.906400,1.00271071,.0001679,0.0189,266.6819,170.0562,60.7381,0,U,66311,999,228,0,-.59E-6,0
VIASAT-3 F2,2025-261A,2026-06-09T21:30:54.736704,1.00271882,.00000854,0.0312,151.3567,327.6411,23.0058,0,U,66454,999,272,0,-.216E-5,0
SHIJIAN-28 (SJ-28),2025-277A,2026-06-10T07:00:11.740320,1.00266762,.0000618,4.5573,272.2452,351.1587,217.1483,0,U,66549,999,208,0,-.342E-5,0
TJS-22,2025-290A,2026-06-09T21:28:47.448768,1.00272417,.0001952,1.5458,286.4806,332.1724,28.2562,0,U,66990,999,195,0,.11E-6,0
TJS-23,2025-306A,2026-06-09T14:56:30.332256,1.00273603,.00052,5.6047,297.5297,166.6180,193.4643,0,U,67226,999,181,0,.31E-6,0
FENGYUN 4C,2025-312A,2026-06-10T12:12:47.434176,1.00271083,.000053,0.0358,151.6264,37.9117,25.5328,0,U,67246,999,171,0,-.305E-5,0
SHIJIAN-29A (SJ-29A),2025-315A,2026-06-10T04:52:21.643392,1.00269685,.00032079,3.3789,95.2846,23.3203,286.2843,0,U,67302,999,154,0,-.5E-6,0
SHIJIAN-29B (SJ-29B),2025-315C,2026-06-09T23:57:02.421216,1.00269629,.00036271,3.3773,95.2819,28.0595,207.5611,0,U,67403,999,161,0,-.5E-6,0
ELEKTRO-L 5,2026-028A,2026-06-10T01:42:11.661984,1.00271217,.0001655,0.2645,309.1839,181.1789,229.6639,0,U,67756,999,118,0,-.8E-6,0
JAM-E JAM 1,2026-028B,2026-06-10T03:11:13.844832,1.00272332,.00010151,0.2760,300.1138,299.8878,100.2032,0,U,67757,999,105,0,.173E-5,0
